{
  "type": "FeatureCollection",
  "features": [
    {
      "type": "Feature",
      "geometry": {
        "type": "MultiPolygon",
        "coordinates": [[[[6.345,49.455],[8.189,48.966],[7.573,48.095],[7.586,47.585],[7.044,47.34],[6.064,46.471],[6.763,46.429],[7.022,45.925],[7.033,44.243],[7.502,43.792],[7.437,43.743],[7.407,43.764],[7.366,43.723],[6.027,43.078],[5.339,43.334],[3.939,43.533],[3.039,42.943],[3.181,42.431],[1.707,42.503],[1.429,42.595],[-0.039,42.685],[-1.275,43.047],[-1.794,43.386],[-1.477,43.58],[-1.049,46.039],[-1.805,46.504],[-2.502,47.527],[-4.435,47.976],[-4.564,48.63],[-3.077,48.828],[-1.58,48.643],[-1.61,49.216],[-0.219,49.28],[0.236,49.729],[1.521,50.215],[1.581,50.869],[2.522,51.088],[2.787,50.723],[4.023,50.338],[5.791,49.538],[6.345,49.455]]],[[[8.566,42.209],[9.107,42.726],[9.553,42.113],[9.211,41.441],[8.696,41.729],[8.566,42.209]]]]
      },
      "properties": { "NAME": "France", "ISO_A2": "FR" }
    },
    {
      "type": "Feature",
      "geometry": {
        "type": "MultiPolygon",
        "coordinates": [[[[-6.27,54.098],[-7.31,54.115],[-8.156,54.439],[-7.247,55.069],[-6.476,55.249],[-5.537,54.657],[-6.27,54.098]]],[[[-2.665,51.617],[-3.539,51.399],[-5.289,51.917],[-4.197,52.279],[-4.152,53.228],[-3.058,53.435],[-3.018,53.932],[-3.964,54.772],[-5.171,55.009],[-4.618,55.496],[-5.581,55.758],[-5.599,57.279],[-4.988,58.628],[-3.204,58.661],[-3.492,57.713],[-2.108,57.705],[-1.759,57.474],[-2.964,56.206],[-1.631,55.585],[-1.275,54.748],[-0.563,54.477],[0.33,53.086],[1.275,52.929],[1.771,52.486],[0.924,51.588],[1.357,51.131],[0.271,50.747],[-1.317,50.8],[-1.984,50.597],[-2.865,50.734],[-3.646,50.226],[-4.792,50.595],[-4.152,51.212],[-3.058,51.208],[-2.665,51.617]]]]
      },
      "properties": { "NAME": "United Kingdom", "ISO_A2": "GB" }
    },
    {
      "type": "Feature",
      "geometry": {
        "type": "Polygon",
        "coordinates": [[[14.81,50.858],[14.382,50.921],[12.336,50.259],[12.798,49.328],[13.816,48.766],[12.745,48.121],[12.745,47.665],[11.62,47.59],[10.306,47.302],[9.547,47.535],[8.558,47.801],[7.586,47.585],[7.573,48.095],[8.189,48.966],[6.345,49.455],[6.117,50.12],[5.995,50.75],[6.193,51.509],[7.048,52.365],[7.195,53.245],[8.861,53.831],[9.012,54.506],[8.661,54.896],[9.438,54.81],[11.175,54.018],[12.502,54.474],[14.264,53.7],[14.216,52.818],[14.645,52.577],[14.586,51.804],[15.019,51.272],[14.81,50.858]]]
      },
      "properties": { "NAME": "Germany", "ISO_A2": "DE" }
    },
    {
      "type": "Feature",
      "geometry": {
        "type": "Polygon",
        "coordinates": [[[1.707,42.503],[3.181,42.431],[3.15,41.845],[2.06,41.275],[0.99,41.04],[-0.323,39.516],[0.234,38.758],[-0.329,38.47],[-0.925,37.556],[-1.671,37.363],[-2.071,36.775],[-4.433,36.711],[-5.339,36.141],[-5.358,36.141],[-6.037,36.19],[-6.5,36.96],[-7.414,37.193],[-7.314,39.457],[-6.88,40.009],[-6.818,41.054],[-6.206,41.57],[-6.657,41.933],[-8.049,41.816],[-8.751,41.969],[-9.218,43.155],[-8.059,43.709],[-7.23,43.569],[-5.424,43.561],[-4.735,43.417],[-3.554,43.517],[-3.112,43.354],[-1.794,43.386],[-1.275,43.047],[-0.039,42.685],[1.429,42.595],[1.448,42.435],[1.707,42.503]]]
      },
      "properties": { "NAME": "Spain", "ISO_A2": "ES" }
    },
    {
      "type": "Feature",
      "geometry": {
        "type": "MultiPolygon",
        "coordinates": [[[[7.502,43.792],[7.033,44.243],[7.022,45.925],[7.831,45.914],[8.427,46.251],[10.133,46.414],[10.454,46.864],[12.111,46.993],[12.405,46.69],[13.701,46.52],[13.365,46.29],[13.712,45.593],[13.131,45.769],[12.488,45.457],[12.369,44.251],[13.617,43.531],[14.075,42.599],[15.123,41.934],[16.027,41.944],[16.022,41.428],[18.007,40.651],[17.05,40.519],[16.516,39.69],[17.159,39.406],[17.128,38.929],[16.09,37.949],[15.651,38.241],[16.22,38.899],[15.61,40.073],[14.911,40.242],[14.752,40.677],[14.052,40.838],[13.722,41.252],[13.045,41.228],[10.5,42.94],[10.106,44.017],[8.762,44.432],[7.96,43.853],[7.502,43.792]],[[12.429,43.892],[12.49,43.939],[12.421,43.967],[12.386,43.925],[12.429,43.892]],[[12.453,41.903],[12.454,41.903],[12.454,41.904],[12.453,41.904],[12.453,41.903]]],[[[15.529,38.303],[15.111,37.322],[15.074,36.659],[14.487,36.793],[12.427,37.797],[13.31,38.22],[13.791,37.974],[15.529,38.303]]],[[[9.792,40.557],[9.558,39.14],[8.372,39.231],[8.555,39.853],[8.134,40.729],[9.546,41.121],[9.792,40.557]]]]
      },
      "properties": { "NAME": "Italy", "ISO_A2": "IT" }
    }
  ]
}
